TRANSPORTER-13 OBJECT M 
1 63221U 25052M   26068.70428271  .00005606  00000+0  25482-3 0  9991
2 63221  97.4005 322.6064 0004913 116.6212 243.5528 15.21138155 54718
TRANSPORTER-15 OBJECT H 
1 66673U 25276H   26068.73117153  .00009902  00000+0  46258-3 0  9997
2 66673  97.4225 143.9657 0006041  14.2077 345.9327 15.19987760 15323
